title,street,city,state,zipcode,phone,email
Exit 17 Self Storage,42 Riverside Dr.,Lebanon,New Hampshire,03766,6034481200,tbueschel@northernequities.com
Great Bow Self Slorage,227 Mechanic Street,Lebanon,New Hampshire,03755,6034484203,customerservice@lebanonstorage.com
Stone Bridge Storage,680 Tennessee Blvd.,Lebanon,Tennessee,37087-1724,6154539912,stonebridgestorage@softek.net
Tennessee Private Storage Inc,610 S Cumberland St,Lebanon,Tennessee,37087-4108,6154448755,
"Storage Star Forest Lane
Gold Member","2812 Forest Ln, TX 75234",Dallas,Texas,75234,14693434942,
A1 Mini Storage,3020 Duncanville Road,Dallas,Texas,75211-7301,2144673730,bfoley4025@sbcglobal.net
A-American Self Storage,9951 Royal Ln,Dallas,Texas,75231-1819,2143418823,jebbie@swbell.net
Depo Self Storage Inc,2617 Dallas Cherryville H,Dallas,North Carolina,28034,7049224700,deposelfstorage@bellsouth.net
STI Movers and Storage,5757 Preston View Blvd,Dallas,Texas,75240,102146749018,purpledairy1@gmail.com
AA Self Storage,1838 Old Hwy 40,Junction City,Kansas,66441-7401,7852383477,info@owlsnestcampgound.com
Meadowview Storage,91766 Hwy 99 South,Junction City,Oregon,97448-9430,5416881896,trina@settlepro.com
Five Star Storage Co,20315 NE Sandy Blvd.,Fairview,Oregon,97024-9740,5036698000,
The Storage Bins,51 Broad Ave.,Fairview,New Jersey,07022-1559,2019450400,TheStorageBins@aol.com
Fleet RV and Boat Storage LLC,627 S Bon View Ave,Ontario,California,91761-1912,9099882800,fleet-ellen@sbcglobal.net
Mini Mall Storage,"1245 Franklin Boulevard, ON, CA, N1R 7E5",Cambridge,Ontario,N1R 7E5,2269090223,mmscambridge@sparkmail.co
Primo Self Storage,995 MOODIE DR. S.,Nepean,Ontario,K2R1H4,6135969696,info@primoselfstorage.com
PROlocker,1737 Kilborn,Ottawa,Ontario,K1H 6N1,6136146628,prolocker@viziamail.com
Public Storage,"36 Vine Avenue, Toronto",Toronto,Ontario,M6P1V6,4167660889,
Public Storage,2 Mendota Road Etobicoke,Etobicoke,Ontario,M8Y1E8,4162514411,
Public Storage,921 The Queensway Mississauga,Mississauga,Ontario,L4Y4C1,9052767699,
Public Storage,5010 Timberlea Blvd. Mississauga,Mississauga,Ontario,L4W2S5,9056259712,
Public Storage,1001 Arrow Road North York,North York,Ontario,M9M2Z5,4167420228,
Public Storage,4120 Finch Avenue E Scarborough,Scarborough,Ontario,M1S3T9,4162983126,
Public Storage,1310 Dundas St. Woodstock,Woodstock,Ontario,N4S7V9,5195392162,
Public Storage,"24 Jefferson Avenue, Toronto",Toronto,Ontario,M6K1Y4,4165337572,
Public Storage,3805 Nashua Drive Mississauga,Mississauga,Ontario,L4V1R3,9056778210,
Public Storage,36 Queen Elizabeth Blvd. Etobicoke,Etobicoke,Ontario,M8Z1L8,4162557936,
Public Storage,2535 Derry Road Mississauga,Mississauga,Ontario,L4T1A1,9056771170,
Alta Storage,Sego Lily Drive (9800 S.),Sandy,Utah,84094,8015239777,stanrickowens@peoplepc.com
Aston Self Storage,Tryens Road & Racoosin Drive,Aston,Pennsylvania,19014,6103582415,
"Storage Star Forest Lane
Gold Member","2812 Forest Ln, TX 75234",Dallas,Texas,75234,14693434942,
A1 Mini Storage,3020 Duncanville Road,Dallas,Texas,75211-7301,2144673730,bfoley4025@sbcglobal.net
A-American Self Storage,9951 Royal Ln,Dallas,Texas,75231-1819,2143418823,jebbie@swbell.net
Depo Self Storage Inc,2617 Dallas Cherryville H,Dallas,North Carolina,28034,7049224700,deposelfstorage@bellsouth.net
STI Movers and Storage,5757 Preston View Blvd,Dallas,Texas,75240,102146749018,purpledairy1@gmail.com
Beltzville Storage,175 Pohopoco Drive,Lehighton,Pennsylvania,18235,6103776750,Info@BeltzvilleStorage.com
Kennett Storage Inc,431 McFarlan Road,Kennett Square,Pennsylvania,19348-2412,6104445708,ag@kennettstorage.com
Attic Self Stor,320 S Bloomington St,Greencastle,Indiana,46135,7656538585,wcooper@ns-ind.com
O'Storage,2350 ATLANTA RD,Milford,Michigan,48381,7708501999,
Whitehorse Self Storage,651 S. Second Ave.,Phoenixville,Pennsylvania,19460-2541,6109334768,w.horse@verizon.net
Allways Self Storage Inc,85 Grand St.,Kingston,New York,12401-3907,8454711620,
Jones River Storage,26 Wapping Road,Kingston,Massachusetts,02364-1333,7815859486,dgalambos@caton.com
Affordable Self Storage By Daniel LLC,2378 Hamburg Turnpike,Wayne,New Jersey,07470,9738311313,info@danielmotors.com
Franklin Self Storage,306 Conover Dr,Franklin,Ohio,45005-1958,9377465190,
Security Storage,210 Kathleen Ct S,Franklin,Tennessee,37064-6736,6153902675,burck.stevens@gmail.com
StorageMAX,14 Grove Street,Franklin,Massachusetts,02038,5085200445,davis@storagemax.com
Heartland Self Storage,1117 North Miles Street,Elizabethtown,Kentucky,42701-2044,2707377040,dkldog@bbtel.com
Danville Storage and Harbour Point,3550 Camino Tassajara,Danville,California,94506,9257361001,john1789@aol.com
Hi and Dri Storage,3334 U S Highway 29,Danville,Virginia,24540,4348363785,nascar10@verizon.net
Auxvasse Self Storage LLC,2215 County Road 269,Columbia,Missouri,65202,5733874608,storage@ktis.net
ezStorage,9265 Berger Road,Columbia,Maryland,21046,4103813343,store@ezstorage.com
Forum DevelopmentLongtown Self Storage,Po. Box 23127,Columbia,South Carolina,29224-3127,8037717088,
Storage Centre,2506 West Worley Street,Columbia,Missouri,65203-4618,3144458423,thestoragecentre@centurytel.net
TKG StorageMart Partners LP,2407 Rangeline St Stop 1,Columbia,Missouri,65202,5734490091,mburnam@storage-mart.com
TKG StorageMart Partners LP,2407 Rangeline St Stop 1,Columbia,Missouri,65202,5734490091,mburnam@storage-mart.com
Dover Mini Storage,2171 Palomino Rd.,Dover,Pennsylvania,17315-3670,7172922707,
Moore's Lake Mini Storage,1685 South State Street,Dover,Delaware,19901,3027359700,inquire@mooreslakeministorage.com
Muncy Self Storage Inc,1603 John Brady Dr,Muncy,Pennsylvania,17756,5705465300,info@muncyss.com
Hippensteel's Secure Self Storage,457 Centerville Road,Newville,Pennsylvania,17241-9584,7177766930,epleysj@earthlink.net
Bush Street Storage,9408 Bush St,Plymouth,California,95669,2092456442,dml4@netzero.net
Plymouth Storage,627 West Main Street,Plymouth,Pennsylvania,18651,5707799568,tina@hancapitalgroup.com
Route 3 Storage LLC,630 Daniel Webster Highway,Plymouth,New Hampshire,03275-3704,6035360033,
Exton Store-N-More,397 East Clover Mill Road,Exton,Pennsylvania,19341,6102809305,info@store-n-more.com
Cannon Mini Self Storage,1 Stoneybrook Lane,Ridley Park,Pennsylvania,19078,6105211030,properties@cannoninc.com
Selinsgrove Mini Storage Inc,Route 522,Selinsgrove,Pennsylvania,17870,5703746336,sms1@ptd.net
Capital Self Storage,"688 Yorktown Rd., Ste. B",Lewisberry,Pennsylvania,17339-9216,7179321333,css@capitalselfstorage.com
Arlington Mr Store It,408 West Arlington Blvd.,Greenville,North Carolina,27834,2527569933,tchapin@nc.rr.com
lnterstate Self Storage,30 Interchange Blvd,Greenville,Pennsylvania,29607,8646279299,cindywinfree@hotmail.com
140 Mini Storage,9 Wheaton Dr.,Littlestown,Pennsylvania,17340,71735988001,ocharbour@comcast.net
Wildwood Mini Storage,5831 Wildwood Ln.,Paradise,California,95969-4524,5308771779,
"Snapbox Self Storage
Gold Member","104 Penns Trail, PA 18940",Newtown,Pennsylvania,18940,12155156941,
Storage World LLC,211 N. Wyomissing Blvd.,Wyomissing,Pennsylvania,19610,6103763100,swberkscnty@storageworldonline.com
Shaler Self Storage,422 Elfinwild Road,Allison Park,Pennsylvania,15101,4124864852,ScottDMG@aol.com
Sinky Self Storage,Fritztown Rd,Sinking Spring,Pennsylvania,19608,6106782278,
Coventry Self Storage LLC,2709 Boston Turnpike,Coventry,Connecticut,06238,8607425540,info@coventrystorage.com
Carriage House Self Storage,25 Hathorn Road,Warwick,New York,10990,8459861121,carriage@warwick.net
Storage Center LLC,700 Narragansett Park Dr.,Pawtucket,Rhode Island,02861,4017252777,Imarshall@storagecenter.com
Bedford Road Self Storage,12219 Bedford Rd NE,Cumberland,Maryland,21502,3013381122,bedfordroadselfstorage@gmail.com
Barrington Self Storage,65 Bay Spring Ave.,Barrington,Rhode Island,02806-1301,4012460552,
"Joiner Parkway Self Storage
Gold Member","108 Joiner Pkwy, CA 95648",Lincoln,California,95648,19166216222,
East 'O' Street Self Storage LLC,290 S. 134th Street,Lincoln,Nebraska,68520-1262,4024890134,rolacres@aol.com
Kimco Self Storage,627 North 66th Street,Lincoln,Nebraska,68505-2409,4024233003,kimco56@windstream.net
Lincoln Storage,48000 U.S. 78,Lincoln,Alabama,35096,2057630076,
Lincoln Storage LLC,290 S 134th St,Lincoln,Nebraska,68506-0896,4024890134,KentT@thompsonrealtygroup.com
Self Storage Management Service Inc,PO Box 671,Lincoln,California,95648,9165014113,alang@selfstoragemanagement.com
J and J Store and Lock,2925 Terry Drive,Middletown,Ohio,45042-1731,5134241538,
Ace Self Storage,11 Gavitt Avenue,Westerly,Rhode Island,02891,4015963007,aceselfstorage@verizon.net
Cornerstone Self Storage Inc,234/236 Post Road (Route 1),Westerly,Rhode Island,02891,4013227353,info@csselfstorage.com
Granite Storage Inc,53 Airport Rd,Westerly,Rhode Island,02891,4015961443,granitestor@aol.com
Bristol Mini Storage,1201 Bluff City Highway,Bristol,Tennessee,37620-5827,4236524664,bms1201@aol.com
Pest Control Bristol,145 Repton Rd,Brislington,Bristol,BS4 3LY,7830304098,
Atlantic Storage Associates,960 Ribaut Rd. #2,Beaufort,South Carolina,29902,8435244425,
Lady's Island Self Storage,13 Inlet Road,Beaufort,Pennsylvania,29907-1619,8435245625,rgrayjr@graycoinc.com
Bluffton Self Storage,11 Oliver Court,Bluffton,South Carolina,29910,8437577733,Blufftonselfstoage@gmail.com
Bluffton Self Storage,"11 Oliver Court Bluffton, SC 29910",Bluffton,South Carolina,29926,8436817333,bcssnew@aol.com
Village Self Storage,10 Coastal Drive Behind Island Ford on Hwy. 278,Bluffton,Pennsylvania,29910,8438378100,vselfstorage@aol.com
AAA Downtown Storage,44 Line Street,Charleston,Pennsylvania,29403,8437235466,
AAA Mini Storage,5284 Big Tyler Road,Charleston,West Virginia,25313-1831,3047766993,aaa_mini_storage@yahoo.com
Ashley Self Storage,2455 Ashley River Rd.,Charleston,Pennsylvania,29414,8435566300,Ashleyss@bellsouth.net
Carter City Self Storage,2143 Heriot St.,Charleston,Pennsylvania,29403-3021,8435776642,
Pack Rat Self Storage,2170 Greenridge Rd.,Charleston,Pennsylvania,29406,8435693100,ncharleston@packratstorage.com
Stockade Storage,1951 Maybank Hwy.,Charleston,Pennsylvania,29412,8437957177,bpoe@buckmanagement.com
Auxvasse Self Storage LLC,2215 County Road 269,Columbia,Missouri,65202,5733874608,storage@ktis.net
ezStorage,9265 Berger Road,Columbia,Maryland,21046,4103813343,store@ezstorage.com
Forum DevelopmentLongtown Self Storage,Po. Box 23127,Columbia,South Carolina,29224-3127,8037717088,
Storage Centre,2506 West Worley Street,Columbia,Missouri,65203-4618,3144458423,thestoragecentre@centurytel.net
TKG StorageMart Partners LP,2407 Rangeline St Stop 1,Columbia,Missouri,65202,5734490091,mburnam@storage-mart.com
TKG StorageMart Partners LP,2407 Rangeline St Stop 1,Columbia,Missouri,65202,5734490091,mburnam@storage-mart.com
Best Self Storage,On KY 18 @ Centennial Circle,Florence,Pennsylvania,17701,8595259030,
RSC LLC dba Richland Storage Center,1895 Hwy 49 South,Florence,Mississippi,39201,6019323299,centerrichland@bellsouth.net
Security Self Storage Inc,8080 Steilen Dr.,Florence,Kentucky,41042,8595252700,securtiysteilen@gmail.com
Harbor Lake Self-Storage,4110 Harbor Lake Drive,Goose Creek,Pennsylvania,29445-5992,8437644587,
Arlington Mr Store It,408 West Arlington Blvd.,Greenville,North Carolina,27834,2527569933,tchapin@nc.rr.com
lnterstate Self Storage,30 Interchange Blvd,Greenville,Pennsylvania,29607,8646279299,cindywinfree@hotmail.com
Beach City Self Storage LP,78 BEACH CITY ROAD,Hilton Head Island,South Carolina,29926,8436817333,bradhhi@aol.com
Dask Storage LLC,200 Industrial Drive,Lexington,South Carolina,29072,8036286288,dkrapf@att.net
Space Center Storage,680 Tennessee Avenue,Lexington,Kentucky,40505,8594251129,storqueen@spacecenterstorage.com
Extra Room Self Storage LLC,Po. Box 2715,Mount Pleasant,South Carolina,29465,8438845221,hpoteat@fgigm.com
LCT Ventures dba Mr Store It,3550 Socastee Blvd,Myrtle Beach,Pennsylvania,29588-6112,8432933300,
Admiral Self Storage,Po. Box 62110,North Charleston,South Carolina,29419,8438242223,admiralstorage@aol.com
Stor-N-Lock,2107 Big Oak Lane,Rock Hill,Pennsylvania,29732-8192,8033663739,stornlock@comporium.net
Palmetto Storage,1850 New Cut Road,Spartanburg,Pennsylvania,29303-4741,8645990699,palmettostorage@aol.com
Main Road Self Storage,10814 Dorchester Road,Summerville,South Carolina,29485,8438216555,summerville@mainroadstorage.com
Shady Oaks Storage,851 East Butternut Road,Summerville,Pennsylvania,29483-8434,8438710109,dogwoode@hotmail.com
Carolina Self Storage Centers Inc,1476 N. Jefferies Hwy,Walterboro,South Carolina,29488,8435495999,Walterboro@monsterstorage.com
A and D Holdings Inc dba Stor and Lock,7 Caldwell Court,Aiken,South Carolina,29803-6821,8036499988,
Storage R Us,2675 Whiskey Road,Aiken,Pennsylvania,29803,8036410901,usstorage@bellsouth.net
Airport Storage,3847 Highway 24,Anderson,South Carolina,29626,8642247049,kimperkins79@yahoo.com
Secure Storage,1823 East 53rd Street,Anderson,Indiana,46013,7656411144,info@securestoragespaces.com
Elmo Land Inc dba Greenwood Mini Storage,Po. Box 1032,Greenwood,Mississippi,38935-1032,6014533314,
Climate Masters Indoor Storage,5806 Campbell Street,Hanahan,Pennsylvania,29410,8437442863,mike@carr-properties.com
Crows Run Self Storage LLC,1901 Crows Run Road,Conway,Pennsylvania,15027,7242425600,contact@crowsrunstorage.com
"Keylock Storage Pendleton
Gold Member","1220 Airport Rd, OR 97801",Pendleton,Oregon,97801,15416251991,
High Ground Storage,100 Highway 17,Little River,Pennsylvania,29566,8432492120,
CubeSmart,43357 Division Street,Lancaster,California,93535,6619485511,STORE0532@CUBESMART.COM
LanCo Mini Storage Center Inc,1813 Old Philadelphia Pike,Lancaster,Pennsylvania,17602-2637,7172916022,
New Danville Pike Self Storage,1350 A New Danville Pike,Lancaster,Pennsylvania,17603-9606,7173916285,edendemo@comcast.net
Premier Self Storage,170 Independence Court,Lancaster,Pennsylvania,17601,7177359920,premierselfstorage@high.net
Daves Mini Storage Inc,3266 Chester Highway,York,Pennsylvania,29745-2150,8036840179,
Glenn Eyster's Storage,1363 Seven Valleys Rd,York,Pennsylvania,17408,7172278400,wire@eysters.com
Moove In Self Storage,2290 Greenbriar Rd,York,Pennsylvania,17404-9733,7173082137,jgilliland@irellc.com
Community Storage of Seneca,922 Shiloh Road,Seneca,Pennsylvania,29678-1247,8648828555,jnorman1@bellsouth.net
Neighborhood Storage,By Pass 123 & Corinth Dr,Seneca,Pennsylvania,29678,8648859896,neighborhoodstor@bellsouth.net
AAA Storage City,3715 Argent Blvd,Ridgeland,Pennsylvania,29936,8433790195,aaastorage@hargray.com
American Mini Storage,"274 Commerce Park Drive, Suite A",Ridgeland,Mississippi,28451-8024,6018988800,
Storage Unlimited,1506 Route 54 East,Clinton,Illinois,61727-1874,2179353200,heiden@springnet1.com
Tower Storage,476 Main St,Clinton,Massachusetts,01510-2422,9783683002,dean_acs@comcast.net
Pawleys Self Storage,11167 Ocean Highway,Pawleys Island,Pennsylvania,29585-6513,8432371937,
Blackhawk Storage Center,Route 51 & Route 168,Darlington,Pennsylvania,16115,7248471623,tmustric@comcast.net
Clark Realty LLC Central Storage of Dover,1607 Whiteford Road,Darlington,Maryland,21034,4104574100,bclark@clarkhdw.com
All Climate LLC,257 E. Camden Wyoming Ave.,Camden,Delaware,19934,3026981091,lbibuilder@comcast.net
Affordable Self Storage,1635 W Pembroke Ave,Hampton,Virginia,23661-1924,7577236551,dan4business@aol.com
Qwik-Stor Inc,1213 North King Street,Hampton,Virginia,23669-2276,7578730011,info@qwik-stor.com
Stow Away Storage,2116 Wessinger Rd,Chapin,Pennsylvania,29036-8845,8037818191,Bpooser3@imichotels.com
A and M Self Storage,47060 98th Street,Sioux Falls,South Dakota,57108-8100,6053682813,mike1delta@aol.com
"Statewide Self Storage
Gold Member","1901 Verne Roberts Cir, CA 94509",Antioch,California,94509,19253926079,
A Storage City Self Storage,2100 A Street,Antioch,California,94509,9253034032,
A Storage City Self Storage,2100 A Street,Antioch,California,94509,9253034032,
Farrell's Self Storage Inc,128 McGhee Rd,Chapel Hill,North Carolina,27517,9199699877,grfarrjr@aol.com
Storage King USA,5027 Hixson Pike,Chattanooga,Tennessee,37343,4236487867,Chattanooga@storagekingusa.com
Storage King USA,5799 Pepperbush Drive,Chattanooga,North Carolina,28304,9104268600,Pepperbush@storagekingusa.com
Storage King USA,4928 US Hwy 301,Chattanooga,North Carolina,28348,9104230337,Hopemills@storagekingusa.com
Auxvasse Self Storage LLC,2215 County Road 269,Columbia,Missouri,65202,5733874608,storage@ktis.net
ezStorage,9265 Berger Road,Columbia,Maryland,21046,4103813343,store@ezstorage.com
Forum DevelopmentLongtown Self Storage,Po. Box 23127,Columbia,South Carolina,29224-3127,8037717088,
Storage Centre,2506 West Worley Street,Columbia,Missouri,65203-4618,3144458423,thestoragecentre@centurytel.net
TKG StorageMart Partners LP,2407 Rangeline St Stop 1,Columbia,Missouri,65202,5734490091,mburnam@storage-mart.com
TKG StorageMart Partners LP,2407 Rangeline St Stop 1,Columbia,Missouri,65202,5734490091,mburnam@storage-mart.com
Aaron's Self Storage,2595 E Highway 2570,Dandridge,Tennessee,37725,8653970022,info@aaronselfstorage.com
Franklin Self Storage,306 Conover Dr,Franklin,Ohio,45005-1958,9377465190,
Security Storage,210 Kathleen Ct S,Franklin,Tennessee,37064-6736,6153902675,burck.stevens@gmail.com
StorageMAX,14 Grove Street,Franklin,Massachusetts,02038,5085200445,davis@storagemax.com
All Safe Storage LLC,7503 Taggart Lane,Knoxville,Tennessee,37938,8659474370,djschnieders@yahoo.com
Dominion Self Storage LLC,PO Box 1390,Knoxville,Tennessee,37901-1390,8655227785,mat@azurus.com
Hayfield Mini Storage,201 Hayfield Rd,Knoxville,Tennessee,37922-2304,8656946224,oliversmith@oliversmithreally.com
Papermill Self-Storage,410 Montbrook Lane Suite 101,Knoxville,Tennessee,37919,8655391313,info@thesmithcompany.net
Security Central Storage,4514 Western Ave,Knoxville,Tennessee,37939,8655888822,
Twin Spires Self Storage,8507 Walbrook Dr,Knoxville,Tennessee,37923-3116,8657692220,twinstore@bellsouth.net
American Self Storage LLC,2970 Gamble Street,Loudon,Tennessee,37774,8884588017,
Milano Self Storage,7 Orchard Park Rd.,Madison,Connecticut,06443,2032459599,dave@milanodevelopment.com
"Point Self-Stor, LLC",3690 Commerce Dr.,Madison,Pennsylvania,53719-4900,6088339090,rdohm@docusafe.net
U-Lock It Storage,117 Benson Blvd.,Madison,Alabama,35758-8513,2566793145,jim.mckee@stanleyassociates.com
Cord Moving,3264 Democrat Road #5,Memphis,Tennessee,38118,8667421558,cordmovingmemphis@outlook.com
Extra Room Self Storage LLC,Po. Box 2715,Mount Pleasant,South Carolina,29465,8438845221,hpoteat@fgigm.com
A+ Storage,636 Division,Nashville,Tennessee,37203,6152555000,tpierce@aplusstorage.com
AmeriSite Sixth Ave South,516 6th Avenue South,Nashville,Tennessee,37203,6157802000,Ray@AmerisiteStorage.com
Barber's Storage,756 Woodland Way,Nashville,Tennessee,37209,6155840512,2t17@barberstorage.com
Stor Place Self Storage,2156 Murfreesboro Pike,Nashville,Tennessee,37217,6153611000,ed@the-freeman-group.com
Stor-N-Lok,510 Fairground Ct.,Nashville,Tennessee,37211,6152426233,stornlokselfstor@bellsouth.net
Stowaway Inc,709 Mount Eden Rd,Shelbyville,Kentucky,40065-8876,5026479249,stowaway@ka.net
MICRO Storage LLC,2720 Chimney Rock Road,Hendersonville,North Carolina,28792-9373,8286935301,microstorage@bellsouth.net
ezStorage,12211 Middlebrook Road,Germantown,Maryland,20874,3015282020,store@ezstorage.com
ezStorage,4301 Rhode Island Avenue,Brentwood,Maryland,20722,3012091009,store@ezstorage.com
Mallory Station Storage,600 Church St E,Brentwood,Tennessee,37027,6153771299,mondayco@bellsouth.net
Anytime Storage,1012 Applegate Lane,Clarksville,Indiana,47129,8127275600,AnytimeStorageClarksville.mail@gmail.com
Storage Plus LLC,5916 New Nashville Hwy.,Murfreesboro,Tennessee,37129-7020,6159079577,
Lakeland Parkway Self Storage,615 E. McDowell Rd,Jackson,Mississippi,39204,6013523963,smsj@stomax.com
S and J Self Storage,2537 Shirley Dr.,Jackson,Michigan,49202-1525,5177898214,srampy7827@aol.com
Sentry Self-Storage,1245 E. McDevitt,Jackson,Michigan,49203,5177831753,info@sentrystoragejackson.com
Storage Stables,3400 South Hwy 89,Jackson,Wyoming,83001,3077336876,storagestables@qwestoffice.net
Tyner Self Storage,5750 I-55 North,Jackson,Mississippi,39211,6019571113,mitch@tynerlawfirm.com
Store It LLC,904 N State Of Frnklin Rd,Johnson City,Tennessee,37604,4237675005,slk62882@hotmail.com
Stowaway Storage,3300 Browns Mill Rd,Johnson City,Tennessee,37604,4232824841,
Assured Storage,1915 West Lamar Alexander Parkway,Maryville,Tennessee,37801-3506,8653795444,rhagood12@aol.com
Maryville Self Storage,133 Roosevelt Rd.,Maryville,Tennessee,37801-2126,,info@maryvillestorage.com
Bristol Mini Storage,1201 Bluff City Highway,Bristol,Tennessee,37620-5827,4236524664,bms1201@aol.com
Pest Control Bristol,145 Repton Rd,Brislington,Bristol,BS4 3LY,7830304098,
Exit 17 Self Storage,42 Riverside Dr.,Lebanon,New Hampshire,03766,6034481200,tbueschel@northernequities.com
Great Bow Self Slorage,227 Mechanic Street,Lebanon,New Hampshire,03755,6034484203,customerservice@lebanonstorage.com
Stone Bridge Storage,680 Tennessee Blvd.,Lebanon,Tennessee,37087-1724,6154539912,stonebridgestorage@softek.net
Tennessee Private Storage Inc,610 S Cumberland St,Lebanon,Tennessee,37087-4108,6154448755,
"A-1 Self Storage
Gold Member","615 SE Main St, OR 97214",Portland,Oregon,97214,19713734368,
"South Waterfront Heated Storage
Gold Member","680 SW Bancroft St, OR 97239",Portland,Oregon,97239,15034763534,
Barbur Blvd Self-Storage LLC,11318 SW Barbur Blvd.,Portland,Oregon,97219,5032456464,info@barburstorage.com
Downtown Self Storage,1304 NW Johnson Street,Portland,Oregon,97209,5032416170,
Rollin Wheels Self Storage,14229 SE Division St.,Portland,Oregon,97236-2630,5037604126,syang771@msn.com
U-Store Self Storage,1130 NE 28th Avenue,Portland,Oregon,97232,5032848111,brctr@qwest.net
Bulldog Self Storage,3832 - 172nd St. NE,Arlington,Washington,98223,36065187593606575252,bulldog_self_storage@hotmail.com
MI-BOX of Arlington Virginia,"VA, 22201",Arlington,Virginia,22201,5719466032,miboxarlington@sparkmail.co
Storage Choice,1602 Harwell Dr,Arlington,Texas,75219,8172615427,pglover@storagechoice.com
Storage Unlimited,1506 Route 54 East,Clinton,Illinois,61727-1874,2179353200,heiden@springnet1.com
Tower Storage,476 Main St,Clinton,Massachusetts,01510-2422,9783683002,dean_acs@comcast.net
Storage America,53 Spencer St.,Manchester,Connecticut,06040,8604329112,
"Self Storage at Telegraph
Gold Member","2633 Telegraph, Ave CA 94612",Oakland,California,94612,15102414115,
"Storage PRO of Oakland
Gold Member","8855 San Leandro St, CA 94621",Oakland,California,94621,15103795575,
"StoragePRO Franklin Street
Gold Member","1205 Franklin St, CA 94612",Oakland,California,94612,15109005474,
"StoragePRO Self Storage of Oakland
Gold Member","8855 San Leandro St, CA 94621",Oakland,California,94621,15103795575,
Beacon Self Storage,2227 San Pablo Ave,Oakland,California,94612,5103795653,
Safe Storage Management Company,2783 E. 12th St.,Oakland,California,94601,5105360616,info@safestorageusa.com
SKS Management (Saf Keep Storage),P.O. Box 12485,Oakland,California,94604,5102738543,pgrossberg@safkeep.com
East Coast Storage LLC,110 Chester River Heights Rd.,Millington,Maryland,21651,4109285933,ecs-ctown@verizon.net
Pack-It Inn LLC,Imboden Drive,Winchester,Virginia,22603,5406675545,
Winchester Industrial Park dba Allied Self Storage,1830 Millwood Pike,Winchester,Virginia,22602,5406629051,info@alliedselfstorage.com
S and A Storage,270 Fred Hill Road,Sparta,Tennessee,38583-2488,9318363218,sastorage@yahoo.com
Ace Mini Storage Inc,7003 E. Hwy 50,Dayton,Nevada,89403,7752410101,acestoragedayton@charter.net
North Dixie Self Storage,9117 N. Dixie Drive,Dayton,Ohio,45414-1859,9378988515,jack@van-con.com
A Storage Inns,332 Main St,Lafayette,Indiana,47901-1352,7654231945,janbootsma@aol.com
Bridge Storage,2108 Verot School Road,Lafayette,Louisiana,70508-6426,3379815500,
Melancon 1-49 Storage Center,3360 N.E. Evangeline Thruway,Lafayette,Louisiana,70501,3372354949,
Pyramid Self-Storage LLC,4900 Tazer Drive,Lafayette,Indiana,47905,7654497909,alan@alanwhiteagency.com
Wea Self Storage,3607 South 18th Street,LaFayette,Indiana,47909,7654777867,Betty@weaselfstorage.com
Dask Storage LLC,200 Industrial Drive,Lexington,South Carolina,29072,8036286288,dkrapf@att.net
"Storage Star Denver
Gold Member","4005 Grape St, CO 80216",Denver,Colorado,80216,17204090920,
"Storelocal Denver
Gold Member","1995 S Valentia Street, #E, CO, 80231",Denver,Colorado,80231,3037558803,
70th Avenue Self Storage,981 E. 70th Ave,Denver,Colorado,80229,30328811118002780579,info@70thaveselfstorage.com
Alameda Mini Storage,9898 E. Alameda Ave,Denver,Colorado,80247,3033630939,
Cocalico Self Store Inc,99 W Church St,Denver,Pennsylvania,17517-9312,7173350428,
Devonshire Mini Warehouse,8700 Devonshire Blvd.,Denver,Colorado,80229-5167,3032881119,
Downtown Denver Storage Inc,"2134 Curtis St., Ste 302",Denver,Colorado,80205-2519,7207462713,datag@juno.com
Local Moving LLC,300 W 53rd Pl g,Denver,Colorado,80216,3033556683,mylocalmovingcompany@gmail.com
Public Storage,400 West Center Ave.,Denver,Colorado,80223,,
Storage Unlimited,1995 South Valentia Street,Denver,Colorado,80231,3037558803,storageunlimited@worldnet.att.net
Central Bucks Self Storage,4435 Progress Meadow Drive,Doylestown,Pennsylvania,18901,2678801779,cbselfstorage@verizon.net
Route 22 Stor-All,6740 Allentown Blvd.,Harrisburg,Pennsylvania,17112-3392,7175457951,
Storhouse at Paxton Street,420 AMITY ROAD,Harrisburg,Pennsylvania,17111,7172342230,Storhouse.paxtonst@rabmgmt.com
"Snapbox Franklin Mills
Gold Member","1 Franklin Mills Blvd, PA 19154",Philadelphia,Pennsylvania,19154,12157701880,
"Snapbox Self Storage
Gold Member","2240 Island Ave, PA 19142",Philadelphia,Pennsylvania,19142,12674407867,
Flexbox Mobile Storage,1800 Indiana Ave,Philadelphia,Pennsylvania,19132,8884635392,info@goflexbox.com
Pier 40 Self Storage Inc,841 South Columbus Blvd.,Philadelphia,Pennsylvania,19147,2152719010,manager@pier40storage.com
Storage King USA,3100 C Street,Philadelphia,Pennsylvania,19134,2156344115,kensington@storagekingusa.com
Storage King USA,"5134 Lancaster Ave.,",Philadelphia,Pennsylvania,19131,2158785594,lancaster@storagekingusa.com
Storage King USA,"335 E Price St.,",Philadelphia,Pennsylvania,19144,2158448252,germantown@storagekingusa.com
Atlas Self Storage Center,"9400 McKnight Rd, Suite 207",Pittsburgh,Pennsylvania,15237,4123641146,al@thomsonproperties.net
Guardian SeIf Storage,5873 Centre Ave.,Pittsburgh,Pennsylvania,15206,4124417368,ca@guardianstorage.com
Rent-A-Space,1100 Boyce Rd,Pittsburgh,Pennsylvania,15241-3909,7249415200,
Store Xpress,100 Hafner Ave,Pittsburgh,Pennsylvania,15090,4127825625,steve@storexpress.com
A Storage Depot,"900 W. Sproul Road, Suite 301",Springfield,Pennsylvania,19064,6106049800,swatchorn@mckeegroup.net
Ingram Mill Self Storage,419 South Ingram Mill Road,Springfield,Missouri,65802-6112,4178627222,
Northridge Mini Storage,1450 Regent Avenue,Springfield,Ohio,45503-5982,9373992702,tah6352@aol.com
Self Storage Center,PO Box 771,Springfield,Tennessee,37172,6153849962,robert@selfstoragecenter.us
Store All,111 Ogden Rd,Springfield,Ohio,45503-5148,9373250402,
The Storing Crew,757 Science Park Road,State College,Pennsylvania,16803,8142357867,stor-all@statecollege.com
Stop 'N Stor LLC,1634 Mearns Road,Warminster,Pennsylvania,18974,2154414400,nshawland@comcast.net
"ABC Self Storage
Gold Member","511 Pine Ave, WA 98290",Snohomish,Washington,98290,13607460902,
"Arm Guard Self Storage
Gold Member","6805 112th St E, WA 98373",Puyallup,Washington,98373,12532487821,
"Auburn Way Self Storage
Gold Member","4425 Auburn Way N, WA 98002",Auburn,Washington,98002,12532718867,
"A-Z Storage
Gold Member","1320 E St, WA 98230",Blaine,Washington,98230,13609191003,
"Bainbridge North Storage
Gold Member","12715 Miller Rd NE, WA 98110",Bainbridge Island,Washington,98110,12067439479,
"Bainbridge Self Storage
Gold Member","9300 Sportsman Club Rd NE #2, WA 98110",Bainbridge Island,Washington,98110,12068767080,
"Barker Self Storage
Gold Member","4303 N Barker Rd, WA 99027",Valley,Washington,99027,18884561122,
"Barker Storage
Gold Member","4303 N Barker Rd, WA 99027",Spokane Valley,Washington,99027,18884561122,
"Bel-Red Storage
Gold Member","1405 130th Ave N.E., WA 98005",Bellevue,Washington,98005,4252233875,
"Cascade Heated Self Storage
Gold Member",1080 SE N Bend Way,North Bend,Washington,98045,14253210902,
"Chateau Storage and Business Park
Gold Member","28610 Maple Valley Black Diamond Rd SE, WA 98038",Maple Valley,Washington,98038,4253108259,
"Clock Tower Self Storage - Lake Stevens
Gold Member","9100 WA-92 #8014, WA 98258",Lake Stevens,Washington,98258,14253668674,
"Clock Tower Self Storage - Marysville
Gold Member","8119 State Ave, WA 98270",Marysville,Washington,98270,15098226251,
"Corners Self Storage
Gold Member","24215 SE 271st Pl, WA 98038",Maple Valley,Washington,98038,14253741302,
"Discovery Park Heated Storage
Gold Member","1470 King St, WA 98229",Bellingham,Washington,98229,13605232592,
Budget Store and Lock Self Storage,1090 MacArthur Road,Whitehall,Pennsylvania,18052,6104353300,budgetstorageus@yahoo.com
"Snapbox Self Storage
Gold Member","701 Reading Ave, PA 19611",Reading,Pennsylvania,19611,14843394158,
Green Hills Self Storage,2460 Morgantown Road,Reading,Pennsylvania,19607-9631,6107754090,ellen@emkutz.com
Keystone Self Storage,1107 Commons Blvd,Reading,Pennsylvania,19605,6109267000,
FlexStore,Po. Box 511,Scranton,Pennsylvania,18501,5706141041,dfink@papaper.com
Northern Storage and Supply,1006 North 4th Avenue,Altoona,Pennsylvania,16601-6125,8149467030,svm420h@aol.com
Antietam Storage Solutions LLC,15133 Bottom Road,Williamsport,Maryland,21795,3012237421,antietamstorage@myactv.net
Valley Storage Co,127 Britner Ave.,Williamsport,Maryland,21795-1556,3017900400,tsnook@nfis.com
Route33 Self Storage,3813 Hecktown road,Easton,Pennsylvania,18040,6102524040,
Basin Road Self Storage,2 Bellecor Drive,New Castle,Delaware,19720,3023227775,basinroad-ss@reybold.com
Red Lion Self Storage,950 Red Lion Rd,New Castle,Delaware,19720,3028387405,redlion-ss@reybold.com
Coventry Self Storage,2020 Route 724,Pottstown,Pennsylvania,19465,6103274123,info@coventryselfstorage.com
Dove Storage - Pottstown,350 Laurel St,Pottstown,Pennsylvania,19464,4844508022,dovestoragepotts@businessmailsystem.com
Frontier Self Storage,205 N. Parish Avenue,Johnstown,Colorado,80534,9705350908,frontierfertilizer@yahoo.com
Iron Forge Storage,6 Westminster Dr,Carlisle,Pennsylvania,17013-4368,7172580334,
Stor-Mor Self Storage,1910 W Trindle Rd,Carlisle,Pennsylvania,17013,7172436700,stormorcarlisle@gmail.com
A Storage Inns,332 Main St,Lafayette,Indiana,47901-1352,7654231945,janbootsma@aol.com
A+ Storage,1058 Sagamore Parkway West,West Lafayette,Indiana,47906,7654977368,cindy@westlafayettestorage.com
A-1 Storage Inc,9750 Zionsville Road,Zionsville,Indiana,46077-8747,3178733144,cartervanlines@aol.com
All American Storage LLC,2503 North Walnut,Bloomington,Indiana,47404,8123394901,north@storeallamerican.com
All Secure Self Storage,5510 W. Sample St.,South Bend,Indiana,46619,5742822440,tveldman@veldmans.net
Anytime Storage,1012 Applegate Lane,Clarksville,Indiana,47129,8127275600,AnytimeStorageClarksville.mail@gmail.com
Arlington Self Storage Inc,3231 N. Arlington Avenue,Indianapolis,Indiana,46218-2540,3175414619,
Attic Self Stor,320 S Bloomington St,Greencastle,Indiana,46135,7656538585,wcooper@ns-ind.com
Batz Gibson and Blanda,1225 Lakeview Dr,Romeoville,Indiana,60446,6302268966,
Bay Storage,6650 Creek Bay Dr,Indianapolis,Indiana,46280-1436,3177840228,bsklare@sbcglobal.net
Country Side Storage,St Rt 43 & St Rt 225,Battle Ground,Indiana,47920,7655674894,kruegers@dcwi.com
East End Mini Warehouse,5327 New Haven Avenue,Fort Wayne,Indiana,46803-3028,2604932332,
Elk Ridge Storage LLC,1510 Research Drive,Jeffersonville,Indiana,47130,8122835000,elkridgestorage@sbcglobal.net
Goshen Storage Center Inc,On Eisenhower Drive between C.R. 27 and Wal-Mart,Goshen,Indiana,46527-0122,5745333722,gsc@goshenstorage.com
Hoosier Self Storage LLC,800 East Main Street,Brownsburg,Indiana,46112-1426,3178522244,rcninc@yahoo.com
Route 88 Self Storage,170 Hillside Drive,Bethel Park,Pennsylvania,15102,4128548888,route88@route88selfstorage.com
Shockey Mini Storage,140 Shockey Ln.,Butler,Pennsylvania,16001-2679,7242870024,dpaul@shockeyministorage.com
Gettysburg Self-Storage,1865 Baltimore Pike,Gettysburg,Pennsylvania,17325,7173372422,weilands@earthlink.net
Ma's Mini Storage,183 Christian St.,Oxford,Connecticut,06478,2038810266,masministorage@yahoo.com
Fanelli's You Store It,1298 Keystone Blvd,Pottsville,Pennsylvania,17901,8006358527,jfanelli@fanelliwarehousing.com
American Self Storage,118 Oak Carriage Road,Lewisburg,West Virginia,24901,3046459010,info@selfstorage-lewisburgwv.com
Heavener Store and Lock,65 Wambold Rd.,Souderton,Pennsylvania,18964,2157030200,kheavener@heavenersupply.com
A Storage Depot,"900 W. Sproul Road, Suite 301",Springfield,Pennsylvania,19064,6106049800,swatchorn@mckeegroup.net
Ingram Mill Self Storage,419 South Ingram Mill Road,Springfield,Missouri,65802-6112,4178627222,
Northridge Mini Storage,1450 Regent Avenue,Springfield,Ohio,45503-5982,9373992702,tah6352@aol.com
Self Storage Center,PO Box 771,Springfield,Tennessee,37172,6153849962,robert@selfstoragecenter.us
Store All,111 Ogden Rd,Springfield,Ohio,45503-5148,9373250402,
Arkansas Self Storage,2325 N. Gregg Avenue,Fayetteville,Arkansas,72703-2812,4795713800,
Cliffdale Mini Storage Inc,820 S Reilly Rd,Fayetteville,North Carolina,28301,9108643331,
Cliffdale Safe Storage,7901 Cliffdale Road,Fayetteville,North Carolina,28314,9104978673,manager@cliffdalesafestorage.com
Fayette Self Storage,112 New Hope Road,Fayetteville,Georgia,30214,7704616371,fayettestorage@bellsouth.net
Fayetteville Self Storage,3100 US Highway 50,Fayetteville,Ohio,45118,5138754300,denny@kileymold.com
Hope Mills Mini Storage,5607 Camden Rd,Fayetteville,North Carolina,28306-7207,9104262233,
International Self Storage,803 South Eastern Boulevard,Fayetteville,North Carolina,28301-6386,9104852428,
Storage King USA,5799 Pepperbush Drive,Fayetteville,North Carolina,28304-4825,9104268600,corporate@expressmoneyservice.com
Storage King USA,3216 Midpine Rd.,Fayetteville,North Carolina,28306,9103210430,Midpine@storagekingusa.com
"Stuff Ur Storage
Gold Member","651 Eastgate Rd, NV 89011",Henderson,Nevada,89011,17027664434,
Personal Storage LLC,2756 N. Green Valley Pkwy # 423,Henderson,Nevada,89014-2120,7024565005,p.king@cox.net
Storage West Self Storage,990 S. Boulder Highway,Henderson,Nevada,89015,7024536600,
Livingston Self Storage,2370 Walnut Ave,Livingston,California,95334-1848,2093946158,robert@jfcinc.com
Livingston Self Storage LLC,5237 US Highway 89 South,Livingston,Montana,59047-9176,4062227394,storage@ycsi.net
American Self Storage,118 Oak Carriage Road,Lewisburg,West Virginia,24901,3046459010,info@selfstorage-lewisburgwv.com
Greeneville Self Storage LLC,1418 W Main St,Greeneville,Tennessee,37743,4236361112,
Bateman Field Mini Storage,169 Railroad Street,Gray,Georgia,31032-5859,4789862540,katmax27@aol.com
Hall's Self Storage,P O Box 413,Gray,Maine,04039,2076573311,hallsselfstorage@maine.rr.com
SMD Self Storage,315 Pecan Ln,Gray,Georgia,31032,4789865602,scott.smdprop@yahoo.com
"Storage Star Austin Lake Travis
Gold Member","9311 N FM 620, TX 78726",Austin,Texas,78726,15129371008,
"Storage Star Ben White
Gold Member","405 E Ben White Blvd, TX 78704",Austin,Texas,78704,12542310507,
"Storage Star Domain
Gold Member","Waters Park Rd, TX 78758",Austin,Texas,78758,,
"Storage Star Mopac
Gold Member","12900 N Mopac Expy, TX 78727",Austin,Texas,78727,15122441011,
"Storage Star Pond Springs
Gold Member","13444 Pond Springs Rd, TX 78729",Austin,Texas,78729,12542070623,
AC Quick and Safe Self Storage,"2110-B Boca Raton Drive, Suite 102",Austin,Texas,78747,5122826060,mitchell@kaloltd.com
Parkway PS Ltd dba Wells Branch Self Storage,1763 Wells Branch Pkwy.,Austin,Texas,78728-7010,5122519600,info@wellsbranchstorage.com
Cedar Bayou Self-Storage,1800 Cedar Bayou Rd,Baytown,Texas,77520-2904,2813031338,sddupont@cebridge.net
Adams Mini Storage,650 IH-10 South,Beaumont,Texas,77707-4007,4098404880,bruce@adamsselfstorage.com
Beaumont Self Storage,190 East First St.,Beaumont,California,92223,9517697700,beaumontselfstorage@msn.com
Guardian Self Storage,1315 East 6th Street,Beaumont,California,92223-2503,9518452929,
Yankee Mini Storage -G and J Development,1020 Western Knolls Ave,Beaumont,California,92223,9517698900,yankeestorage@myway.com
Sawco Self Storage,15111 Carrollton Boulevard,Carrollton,Virginia,23314-3431,7572389861,
Metro Mini Storage,27236 US 290,Cypress,Texas,77433,2813734994,craydrake@aol.com
AAA Self Storage,5400 Hurd Place,El Paso,Texas,79912-5679,9155858800,ssaaa@sbcglobal.net
Aurora Storage,1708 North Fork Road,Fort Worth,Texas,76179,8172361522,aurora.storage07@sbcglobal.net
Storage Direct Galveston,2125 Church Street,Galveston,Texas,77550,4097669911,galveston@platinumstorage.com
Private Mini Storage,10575 Westoffice Drive,Houston,Texas,77042-5310,7134646944,dlm@private-mini.com
AA Storage Inc,Po. Box 272,Hurst,Texas,76053,5053787030,shirleyjackson635@hotmail.com
"Storage Star Laredo
Gold Member","2110 Quail Creek Rd, TX 78045",Laredo,Texas,78045,19569482256,
McGee Lane Self Storage,1850 McGee Lane,Lewisville,Texas,75077,9723173112,cs.mcgee@verizon.net
Livingston Self Storage,2370 Walnut Ave,Livingston,California,95334-1848,2093946158,robert@jfcinc.com
Livingston Self Storage LLC,5237 US Highway 89 South,Livingston,Montana,59047-9176,4062227394,storage@ycsi.net
Ark Road Self Storage,108 Ark Rd.,Lumberton,New Jersey,08048,6099535500,manager@arkroadstorage.com
Another Closet Self Storage,2101 Industrial Dr.,McAllen,Texas,78504,9566680900,anothercloset@aol.com
Advantage Self Storage Inc,"2600 Eldorado Parkway, Suite 110",McKinney,Texas,75070,9725470236,rjones@advantagestorege.net
Advent Development Comp dba Advanced Self Storage,6010 Monticello Drive,Montgomery,Alabama,36117,3342791234,advanced6010@charterinternet.com
Maxwell Mini Storage,312 Air Base Blvd,Montgomery,Alabama,36108,,contact@maxwellmini.com
Montgomery Self Storage,9 Factory Street,Montgomery,New York,12549-1260,8454576229,johnjobrien1@aol.com
"Storage Star Red Bluff
Gold Member","10800 Red Bluff Rd, TX 77507",Pasadena,Texas,77507,18323231052,
Edwards Mini Storage,2181 E. Foothill Blvd. Suite 105,Pasadena,California,91101,6267933208,krueger565@yahoo.com
Everest Self Storage,"199 S. Los Robles Ave., Suite 200",Pasadena,California,91101,6265855920,terry@everestworld.com
ezStorage,8195 Jumpers Hole Rd.(@Rt. 2),Pasadena,Maryland,21122,4107608030,store@ezstorage.com
"Storage Star
Gold Member","1960 Alma Dr, TX 75075",Plano,Texas,75075,14693403927,
Plano Security Self Storage LLC,6500 W. Plano Parkway,Plano,Texas,75093,9726080996,
Store More on Rt 34,3980 Turner Ave.,Plano,ILLINOIS,60545,6308423387,kdigate@aol.com
Valley Self Storage Units,3709 Shenandoah Avenue Northwest,Roanoke,Virginia,24017-6513,5403434343,
"Storage Star DeZavala
Gold Member","6450 De Zavala Rd, TX 78249",San Antonio,Texas,78249,12109512060,
"Storage Star Huebner
Gold Member","16523 Huebner Rd, TX 78248",San Antonio,Texas,78248,12102360394,
281 Mini Storage Center,"150 N. Loop 1604 East, Suite 202",San Antonio,Texas,78232,2103086288,rallen@askdag.com
Crystal Clean Self-Storage,8708 Marbach Rd,San Antonio,Texas,78227,2106757777,dwlttu@sbcglobal.net
Evans Road Great Space Mini Storage,12040 Colwick,San Antonio,Texas,78216,2109790800,don@kuyrkendall.com
Patriot Self Storage,9403 Marbach Rd,San Antonio,Texas,78245,2106450325,alowry1@stx.rr.com
Pioneer RV and Boat Storage,11509 Fm 1957,San Antonio,Texas,77042-5310,2106798500,pioneerhomes@satx.rr.com
San Ann Self Storage,31904 State Road 52,San Antonio,Florida,33576-0128,3525884002,
CubeSmart,946 East Rancheros Drive,San Marcos,California,92069,7607410525,STORE0227@CUBESMART.COM
Storage West Self Storage,235 East Carmel St.,San Marcos,California,92078,7607444510,
Sensible Self Storage LLC,PO Box 563,Seabrook,New Hampshire,03874,6035226006,Sales@SensibleSelfStorage.com
"Storage Star Tomball
Gold Member","11133 Spring Cypress Rd, TX 77377",Tomball,Texas,77377,18326986100,
Climate Controlled Self Storage Inc,206 North Avenue,Webster,New York,14580,5855456162,info@climatecontrolledselfstorage.com
Action Storage Rentals,2125 Saratoga Boulevard,Corpus Christi,Texas,78417-3406,3618552513,actionstoragerve@aol.com
Americas Storage Center Inc,4011 N. Midland Drive,Midland,Texas,79701,4325206400,
Mom's Storage Units,635 Isabella Street,Midland,Michigan,48640,9898357430,tjohn2207@aol.com
Able Storage,17215 Pearland Sites Road,Pearland,Texas,77584,2814892919,cbellomy@bellomyco.com
B and R Mini Storage,615 7th Ave,Longview,Washington,98632-1691,3605771110,
Longview Self Storage LLC,4420 Ocean Beach Hwy,Longview,Washington,98632-5039,3605774420,4bohmes@adelphia.net
AAA Water Tower,945 W New Hope Dr.,Cedar Park,Texas,78613,5122600090,watertower@storagedirect.com
DeSoto Self Storage,8660 Timber Trails Drive,DeSoto,Kansas,66018,9134817246,mike@desotoselfstorage.com
Texarkana National Storage,2801 Richmond Road,Texarkana,Texas,75503-2123,9032233939,138king@msn.com
Rockwall Mini Storage,1800 E I30,Rockwall,Texas,75087,9727710138,
All-Star Self Storage Ltd,9605 Avenue P,Lubbock,Texas,79423-3270,8067452497,daler@x-pressrentacar.com
Storage At Your Door,4401 Barnett Road,Wichita Falls,Texas,76310-2306,9406967020,quality@AlbertMoving.com
Guardian Storage,5136 E University Blvd,Odessa,Texas,79762-8110,4325503344,larryglee@leecoproperties.com
Castle Hill Self Storage,5103 E. Airline Road,Victoria,Texas,77904-3776,3615760276,mloeb@loebgroup.com
Strongroom Caravan Storage,2 Danjul Close,Kilsyth,Victoria,3137,610425730173,strongroomcaravanstorage@sparkmail.co
Premier Storage Inc,2055 Members Drive,Huntsville,Alabama,35802,2568812022,info@premierstoragehsv.com
Cricket's Mini Storage LLC,5716 W Highway 90,del Rio,Texas,78840,8317755962,
Yellow Jacket State Storage,1567 E Henderson St,Cleburne,Texas,76031,8175177801,yellowjacketstatestorage@outlook.com
Leave and Lock Mini-Storage Co,PO Box 426,Weatherford,Texas,76086-0426,8175944421,jkirkpatrick@stewart.com
Gratiot Storage LLC,4886 Gratiot Road,Saginaw,Michigan,48638,9897939999,ngibbons@howard-steel.com
A-1 Storage,1120 N Lemon St,Orange,California,92867-4709,7145161939,
A-Affordable Storage LLC dba Chapman Self Stg,1107 W.Chapman Ave. Ste.C,Orange,California,92868,7142881191,deannp@amicorporate.com
Chapman Heights Self Storage,623 W Collins Ave,Orange,California,92867,8008872926,jeff@rchobbsco.com
Storage West Self Storage,681 S. Tustin St. #301,Orange,California,92866,7146335496,
Public Storage,13601 Hull Street Road,Midlothian,Virginia,23112,,
Security Self Storage,1220 Davis Road,Elgin,Illinois,60123-1318,8476957933,sss1228davis@sbcglobal.net
Academy Storage LLC,1550 Academy Rd.,Santa Fe,New Mexico,87507,5054383115,academyss@aol.com
Wagon Self Storage,4684 Wagon Rd,Santa Fe,New Mexico,87507,5054716900,steve.reid@comcast.net
Freeport Self Storage,73 E Merrick Rd,Freeport,New York,11520-4030,5163781200,pkampa@optonline.net
Salado Eagle Storage,11315 Blackberry Rd,Salado,Texas,76571,2543281234,
"StoragePRO Self Storage of Richmond
Gold Member","101 W Cutting Blvd, CA 94804",Richmond,California,94804,15103795972,
Econo Self Storage Inc,Po. Box 9405,Richmond,Virginia,23228,8043534040,ftmjr@erols.com
Extra Attic Mini Storage,10551 Patterson Avenue,Richmond,Virginia,23238,8047415353,extraatticpatterson@verizon.net
Lok-Tite Self Storage,1609 Fm 359 Road,Richmond,Texas,77469-1258,2813440008,
Main Street Storage,455 E. Main St.,Richmond,Kentucky,40475,8596260021,mainstreetstorage@gmail.com
Parham Road Self Storage LLC,2701 E. Parham Road,Richmond,Virginia,23228,,rhy3@youngblood-tyler.com
Public Storage,30 Brodie Dr,Richmond,Ontario,L4B3M2,9055088485,
Smartbox Portable Self Storage LLC,2100 Dabney Road,Richmond,Virginia,23230,8042820560,richmond@smartboxusa.com
West End SeIf Storage,9120 W Broad St,Richmond,Virginia,23294-5805,8049670771,westendselfstora@aol.com
North Star Self Storage,10460 FM 740,Forney,Texas,75126,9725641088,NorthStarStorage@aol.com
43rd Street Self Storage,9417 NW 43rd Street,Gainesville,Florida,32653-7887,3523774321,
A Storage Center,6800 W. University Ave.,Gainesville,Florida,32607,3523320003,information@astoragecenter.com
Access Self Storage LLC,2160 NW 67th Place,Gainesville,Florida,32653,3523370602,amyweber@scherenfl.com
ezStorage,14220 Lee Highway (Rt. 29),Gainesville,Virginia,20155,7037543401,store@ezstorage.com
NW Mini-Storage and Warehouse,3500 NW 97th Blvd # A,Gainesville,Florida,32606,3523328917,
Self Storage Management of North Florida Inc,6505 SW Archer Road,Gainesville,Florida,32608,3523714296,archerinfo@gainesvilleselfstorage.com
Blue Star Storage,"300 W. Broadway, Bldg 2 P.O. Box 65",Prosper,Texas,75078,9723463633,rselliott@bluestarstorage.com
CubeSmart,3101 Valley Avenue,Pleasanton,California,94566,9252490004,STORE0759@CUBESMART.COM
Lock It Up Self Storage,7315 Johnson Drive,Pleasanton,California,94588,9254630777,cat@lockitupstorage.com
Americas Budget Storage,40671 Joy Rd,Canton,Michigan,48187-4021,7344596444,
Madison County Self Storage,122 Yandell Road,Canton,Mississippi,39046-9259,6018539930,
Ozborn Self Storage,207 North Hargon Street,Canton,Mississippi,39046-3915,6018593433,mozborn@bellsouth.net
Stone Self Storage LLC,PO Box 282,Canton,Mississippi,39046,6015281615,spsv@suscom.net
CubeSmart,8716 Jefferson Davis Highway,Fredericksburg,Virginia,22407,5408916500,STORE0296@CUBESMART.COM
CubeSmart,20 Plantation Drive Suite 151,Fredericksburg,Virginia,22406,5403711266,STORE0297@CUBESMART.COM
Lock-lt-Up Self Storage,370 White Oak Road,Fredericksburg,Virginia,22405-5726,5408998888,
Derrel's Mini Storage Inc,3265 W. Ashlan Ave.,Fresno,California,93722-4402,5592249900,
Heritage Storage Facilities-Ashlan LLC,4485 W Ashlan Avenue,Fresno,California,93722,5594853686,info@heritagestorage.com
Florida Space Center,1830 Hypoluxo Rd,Lake Worth,Florida,33462,5615881000,FloridaSpace@mindspring.com
Public Storage,6664 Hypoluxo Rd.,Lake Worth,Florida,33467,,
Security Self Storage,8135 Lake Worth Road,Lake Worth,Florida,33467,5612078395,elena@securityselfstoragefl.com
"Stuff Ur Storage
Gold Member","651 Eastgate Rd, NV 89011",Henderson,Nevada,89011,17027664434,
Personal Storage LLC,2756 N. Green Valley Pkwy # 423,Henderson,Nevada,89014-2120,7024565005,p.king@cox.net
Storage West Self Storage,990 S. Boulder Highway,Henderson,Nevada,89015,7024536600,
2147 Storage,911 2nd Street,Marble Falls,Texas,78654-5711,8306937866,tina@sweetbabybirds.com
A Storage Place Ltd,496 Hwy 67 South,Decatur,Alabama,35603,2563557693,suzanne@housinginvestors.com
A Storage Place Ltd,496 Hwy 67 South,Decatur,Alabama,35603,2563557693,suzanne@housinginvestors.com
Northwest Mini Storage,2330 Rt. 121 N.W.,Decatur,Illinois,62526,2178753200,dllogan@nw-ministorage.com
Public Storage,1504 Austin Dr.,Decatur,Georgia,30032,,
Highlands Storage Village LLC,2128 Cashiers Road,Highlands,North Carolina,28775,8285264555,bucky@highlandsstoragevillage.com
Adams Cherokee Storage,1300 E. Pine St.,Jacksonville,Texas,75766-5414,9035862681,adamstorage@tyler.net
CubeSmart,8585 Touchton Road,Jacksonville,Florida,32216,9046209799,STORE0708@CUBESMART.COM
CubeSmart,11570 Beach Boulevard,Jacksonville,Florida,32246,9042324404,STORE0709@CUBESMART.COM
CubeSmart,8121 Point Meadows Drive,Jacksonville,Florida,32256,9045195570,STORE0710@CUBESMART.COM
CubeSmart,3024 Plummer Cove Road,Jacksonville,Florida,32223,9042889886,STORE0723@CUBESMART.COM
CubeSmart,645 Park Street,Jacksonville,Florida,32204,9043537778,STORE0724@CUBESMART.COM
Public Storage,4390 Hypoluxo Rd,Lantana,Florida,33462,,
All American Storage Systems LLC,Fax Line,Jasper,Georgia,30143,7062531332,allamerican@ellijay.com
Sky Mountain Storage,4 South 2600 West #4A,Hurricane,Utah,84737,4356350366,ballardrealty@infowest.com
Lock It Up Self Storage Centers,895 Wall Ave.,Ogden,Utah,84404,8013938000,info@lockitup.com
The Parkway Storage Center,1042 S. Geneva Road,Orem,Utah,84058-5807,8013738103,kentcurtis@mac.com
"Storage Star Park City
Gold Member","6344 N Promontory Ranch Rd, UT 84098",Park City,Utah,84098,13854325487,
Economy Mini Storage,300 Old Skokie Road,Park City,Illinois,60085-4701,8476624866,matt@marlingmanagement.com
Store in a Wink,4825 N. Hydraulic,Park City,Kansas,67219,3162609465,st0reinawinkKS@yahoo.com
"Storage Star Roy
Gold Member","3562 W 4800 S, UT 84067",Roy,Utah,84067,13853930412,
Storage Plus,4018 South 300 West,Salt Lake City,Utah,84107,8015904439,spcorp@hotmail.com
Stor-n-Lock Self Storage,1060 North 300 West,Salt Lake City,Utah,84103,8013597200,bigal@stor-n-Iock.com
Sugarhouse Self Storage,1260 Elgin Ave,Salt Lake City,Utah,84106-3038,8014630500,jproctor5333@msn.com
Towne Storage,510 W 100 South,Salt Lake City,Utah,84101,8019316079,burkeb@townestorage.com
E-Z Self Storage,13053 S. Minuteman Drive,Draper,Utah,84020,8015239230,info@draperselfstorage.com
AAA Self Storage,1618 E. Park Avenue,Riverton,Wyoming,82501-3858,3078563913,jpepper@wyoming.com
Blue Ribbon Storage,502 West 700 South,Pleasant Grove,Utah,84062,8017851243,joe@blueribbonstorage.com
Watch Dog Self Storage LLC,111 W 1060 N,Springville,Utah,84663,8014891077,michaeldparry@yahoo.com
"Storage Star Grantsville
Gold Member","651 W Main St, UT 84029",Grantsville,Utah,84029,14242287674,
"ABC Self Storage
Gold Member","511 Pine Ave, WA 98290",Snohomish,Washington,98290,13607460902,
"Arm Guard Self Storage
Gold Member","6805 112th St E, WA 98373",Puyallup,Washington,98373,12532487821,
"Auburn Way Self Storage
Gold Member","4425 Auburn Way N, WA 98002",Auburn,Washington,98002,12532718867,
"A-Z Storage
Gold Member","1320 E St, WA 98230",Blaine,Washington,98230,13609191003,
"Bainbridge North Storage
Gold Member","12715 Miller Rd NE, WA 98110",Bainbridge Island,Washington,98110,12067439479,
"Bainbridge Self Storage
Gold Member","9300 Sportsman Club Rd NE #2, WA 98110",Bainbridge Island,Washington,98110,12068767080,
"Barker Self Storage
Gold Member","4303 N Barker Rd, WA 99027",Valley,Washington,99027,18884561122,
"Barker Storage
Gold Member","4303 N Barker Rd, WA 99027",Spokane Valley,Washington,99027,18884561122,
"Bel-Red Storage
Gold Member","1405 130th Ave N.E., WA 98005",Bellevue,Washington,98005,4252233875,
"Cascade Heated Self Storage
Gold Member",1080 SE N Bend Way,North Bend,Washington,98045,14253210902,
"Chateau Storage and Business Park
Gold Member","28610 Maple Valley Black Diamond Rd SE, WA 98038",Maple Valley,Washington,98038,4253108259,
"Clock Tower Self Storage - Lake Stevens
Gold Member","9100 WA-92 #8014, WA 98258",Lake Stevens,Washington,98258,14253668674,
"Clock Tower Self Storage - Marysville
Gold Member","8119 State Ave, WA 98270",Marysville,Washington,98270,15098226251,
"Corners Self Storage
Gold Member","24215 SE 271st Pl, WA 98038",Maple Valley,Washington,98038,14253741302,
"Discovery Park Heated Storage
Gold Member","1470 King St, WA 98229",Bellingham,Washington,98229,13605232592,
"Storage Star Hooper
Gold Member","5215 W 4000 S, UT 84315",Hooper,Utah,84315,18017328444,
Security Self Storage,228 S Main St,Rutland,Vermont,05701-4868,8027752960,dvnels2@aol.com
American Self Storage,3937 Wheeler Ave,Alexandria,Virginia,22309,7033705507,kduggin@americanstorage.com
CubeSmart,4650 Eisenhower Avenue,Alexandria,Virginia,22304,7037518100,STORE0591@CUBESMART.COM
Macarthur Drive Self Storage,727 Macarthur Drive,Alexandria,Louisiana,71303-3115,3184420206,
Public Storage,6325 Stone Rd.,Centreville,Virginia,20121,,
ezStorage,3700 Centreville Road,Chantilly,Virginia,20151,7034357623,store@ezstorage.com
Community Self Storage,1525 Putt Putt Lane,Charlottesville,Virginia,22901-1473,4349735123,
Christiansburg,390 Bell Road,Christiansburg,Virginia,24073,5403825394,info@commonwealth-ss.com
ezStorage,3340 Elm Farm Road,Dale City,Virginia,22192,7035801167,store@ezstorage.com
Fairfax City Self Storage,3980 Pickett Road,Fairfax,Virginia,22031,7039781200,bjennings@fairfaxcityselfstorage.com
Public Storage,11199 Waples Mill Rd.,Fairfax,Virginia,22030,,
CubeSmart,8716 Jefferson Davis Highway,Fredericksburg,Virginia,22407,5408916500,STORE0296@CUBESMART.COM
CubeSmart,20 Plantation Drive Suite 151,Fredericksburg,Virginia,22406,5403711266,STORE0297@CUBESMART.COM
Lock-lt-Up Self Storage,370 White Oak Road,Fredericksburg,Virginia,22405-5726,5408998888,
43rd Street Self Storage,9417 NW 43rd Street,Gainesville,Florida,32653-7887,3523774321,
A Storage Center,6800 W. University Ave.,Gainesville,Florida,32607,3523320003,information@astoragecenter.com
Access Self Storage LLC,2160 NW 67th Place,Gainesville,Florida,32653,3523370602,amyweber@scherenfl.com
ezStorage,14220 Lee Highway (Rt. 29),Gainesville,Virginia,20155,7037543401,store@ezstorage.com
NW Mini-Storage and Warehouse,3500 NW 97th Blvd # A,Gainesville,Florida,32606,3523328917,
Self Storage Management of North Florida Inc,6505 SW Archer Road,Gainesville,Florida,32608,3523714296,archerinfo@gainesvilleselfstorage.com
CubeSmart,13800 McLearen Road,Herndon,Virginia,20171,7034378100,STORE0596@CUBESMART.COM
Brookvale Mini Storage,10436 Mary Ball Rd,Kilmarnock,Virginia,22503-2206,8044351209,
Rappahannock Storage LLC,94 North Main Street,Kilmarnock,Virginia,22482,8044362596,cchase@crosslink.com
Blue Bay Self Storage,8125 County Road 44,Leesburg,Florida,34788-3712,3527282100,jcdbbss@aol.com
CubeSmart,847 Trailview Boulevard Southeast,Leesburg,Virginia,20175,7037778211,STORE0567@CUBESMART.COM
Sherwood Storage,1214 State Road 44,Leesburg,Florida,34748-9383,3523198000,
Graves Mill Storage,18317 Forest Road,Lynchburg,Virginia,24502,4343851133,info@gravesmillstorage.com
Ideal Storage LLC,3564 Young Pl,Lynchburg,Virginia,24501,4345280040,
Public Storage,7909 Sudley Rd.,Manassas,Virginia,20109,,
Storage Zone,1556 Spring Hill Rd,McLean,Virginia,22102,7035563433,gerrytrainor@cox.net
Public Storage,13601 Hull Street Road,Midlothian,Virginia,23112,,
Colley Self Storage,4415 Colley Ave,Norfolk,Virginia,23508,7574404400,colleyselfstorage@gmail.com
Ghent Self-Storage,529 W 24th St,Norfolk,Virginia,23517-1206,7576251221,henderson_jr@msn.com
American Eagle Selfstorage LLC,4592 Sandesara Drive,Prince George,Virginia,23875,8049579690,uc_patel@verizon.net
ezStorage,2055 Mercator Drive,Reston,Virginia,20191,7034765779,store@ezstorage.com
"StoragePRO Self Storage of Richmond
Gold Member","101 W Cutting Blvd, CA 94804",Richmond,California,94804,15103795972,
Econo Self Storage Inc,Po. Box 9405,Richmond,Virginia,23228,8043534040,ftmjr@erols.com
Extra Attic Mini Storage,10551 Patterson Avenue,Richmond,Virginia,23238,8047415353,extraatticpatterson@verizon.net
Lok-Tite Self Storage,1609 Fm 359 Road,Richmond,Texas,77469-1258,2813440008,
Main Street Storage,455 E. Main St.,Richmond,Kentucky,40475,8596260021,mainstreetstorage@gmail.com
Parham Road Self Storage LLC,2701 E. Parham Road,Richmond,Virginia,23228,,rhy3@youngblood-tyler.com
Public Storage,30 Brodie Dr,Richmond,Ontario,L4B3M2,9055088485,
Smartbox Portable Self Storage LLC,2100 Dabney Road,Richmond,Virginia,23230,8042820560,richmond@smartboxusa.com
West End SeIf Storage,9120 W Broad St,Richmond,Virginia,23294-5805,8049670771,westendselfstora@aol.com
Valley Self Storage Units,3709 Shenandoah Avenue Northwest,Roanoke,Virginia,24017-6513,5403434343,
A Storage Depot,"900 W. Sproul Road, Suite 301",Springfield,Pennsylvania,19064,6106049800,swatchorn@mckeegroup.net
Ingram Mill Self Storage,419 South Ingram Mill Road,Springfield,Missouri,65802-6112,4178627222,
Northridge Mini Storage,1450 Regent Avenue,Springfield,Ohio,45503-5982,9373992702,tah6352@aol.com
Self Storage Center,PO Box 771,Springfield,Tennessee,37172,6153849962,robert@selfstoragecenter.us
Store All,111 Ogden Rd,Springfield,Ohio,45503-5148,9373250402,
ezStorage,45980 Old Ox Road,Sterling,Virginia,20166,7034351318,store@ezstorage.com
Public Storage,21360 Gentry Dr.,Sterling,Virginia,20166,,
Central Self Storage,561 Central Drive,Virginia Beach,Virginia,23454,7573402159,
Interstate Self Storage,One Columbus Ctr. Suite 1100,Virginia Beach,Virginia,23462,7575540237,Ireda8@yahoo.com
Jack Rabbit Self Storage,109 North Birdneck Road,Virginia Beach,Virginia,23451-5709,7574284275,wiildhare@aol.com
Lynnhaven Self Storage,3092 So lynnhaven Rd,Virginia Beach,Virginia,23452-6719,7573064100,akayc@aol.com
Mini Price Self Storage,1060 Lynnhaven Parkway,Virginia Beach,Virginia,23452,7574861122,
PackRat Storage,4864 Shell Road,Virginia Beach,Virginia,23455-3802,7573637555,twomenandtruck@aol.com
Potter Self Storage,1328 N Great Neck Rd,Virginia Beach,Virginia,23454-2230,7574811112,brock@potterandcompany.com
Virginia Beach Mini Storage,1366 Virginia Beach Boulevard,Virginia Beach,Virginia,23454-4927,7574284242,
ezStorage,14924 Jefferson Davis Hwy,Woodbridge,Virginia,22191,7034904701,store@ezstorage.com
Public Storage,4071 Prince William Pkwy.,Woodbridge,Virginia,22192,,
Storage Direct Woodbridge,"3318 Old Bridge Road,",Woodbridge,Virginia,22192,7038978796,woodbridge@storagedirect.com
Americas Best Storage LLC,5488 Nansemond Parkway,Suffolk,Virginia,23435,7574886444,info@americasbeststorage.com
Space Savers Self Storage,110 Virginia Ham Dr,Suffolk,Virginia,23434-2750,7575381600,richard@rdallred.com
Acorn Mini Storage Inc,950 Acorn Drive,Harrisonburg,Virginia,22802,5405743947,acornmini@hughes.net
Stow Away Self Storage,4068 Early Road,Harrisonburg,Virginia,22801,5404427869,info@gostowaway.com
Lincoln Storage,3226 State Route 45,Salem,Ohio,44460,3303328888,george@parkerburns.com
W and W Developers Inc DBA Cedar Park Storage,1107 Pine Glen Road,Staunton,Virginia,24401-1858,5408867545,swisely@ntelos.net
Breez-In AssocLC ta Storage City,Po. Box 61,Hopewell,Virginia,23860,8047969306,waddelldeb@comcast.net
Ashburn Indoor Self Storage Inc,21731 A Filigree Ct.,Ashburn,Virginia,20147,5712237458,ashindss@erols.com
Belmont Ridge Self Storage LLC,19861 Belmont Ridge Road,Ashburn,Virginia,20147-3002,7037230710,
Tysons Self Storage,1200 Downey Dr.,Vienna,Virginia,22182,7037595400,tysonsstorage@earthlink.net
Harris Rentals LLC,1225 West Main Street,Radford,Virginia,24141,5405774902,lisamcguire@harriscontractors.com
Absolute Storage Inc,201 Armco Blvd,Ashland,Kentucky,41101-7203,,kstone@airequipmentsales.com
Ashland Mini Storage Inc,11 Nickerson Road,Ashland,Massachusetts,01721,5088817923,ashlandstorage@aol.com
Ashland's 126 Self Storage,"162 Pond Street, Suite A, Route 126",Ashland,Massachusetts,01721,5088818550,s.storage@verizon.net
Castle Storall LLC,588 USHighway 250 East,Ashland,Ohio,44805-8919,4192891111,
All Around Mini Storage Inc,1465 Strasburg Road,Front Royal,Virginia,22630-7909,5406356024,corinnevia@yahoo.com
Mark's Mini Storage,2384 Hayes Rd,Hayes,Virginia,23072,8046425300,muddybeach2170@aol.com
Air Tight Storage,"3356 ironbound Road, Suite 401",Williamsburg,Virginia,23188,7572209960,webmaster@airtightselfstorage.com
Williamsburg Storage,5151 Mooretown Road,Williamsburg,Virginia,23188,7572536575,williambsburgstorageandmoving@cox.net
EZ Storage,1320 E Big Beaver Rd,Troy,Michigan,48083,2485249182,bphillips@nolantx.com
Dominion Self Storage,373 Tasker Road,Stephens City,Virginia,22655,,sherylw@dominiondocumentshredding.com
Store-Tel Storage,23263 Tidewater Trail,Tappahannock,Virginia,22560-5125,8044432688,iharris@virginia.edu
SJS Inc dba Community Storage,17168 Owens Dr.,King George,Virginia,22485-5973,5406633302,communitystorage@verizon.net
Atlantic Self Storage,18 Ashby Street,Warrenton,Virginia,20186,5403493886,ericmiller@atlanticstor.com
Sunset Storage,1912 Wildcat Road,Big Stone Gap,Virginia,24219-4436,2765236274,
Storage Line LLC,5574 Tucson Court,Haymarket,Virginia,20169-3145,5712614240,bmountain@his.com
Lake Storage Solutions,230 Lakewood Forrest Road,Moneta,Virginia,24121,5407191516,rtobey@lakestoragesolutions.com
"Snapbox Arundel Ct.
Gold Member","403 Arundel Ct, MD 21009",Abingdon,Maryland,21009,14102133024,
"Dublin Security Storage
Gold Member","6005 Scarlett Ct, CA 94568",Dublin,California,94568,19254207788,
Village Associates,5995 Shier Rings Road,Dublin,Ohio,43016-1237,6145260097,Iweil@weilrealestate.com
"Auburn Way Self Storage
Gold Member","4425 Auburn Way N, WA 98002",Auburn,Washington,98002,12532718867,
"Locksley Mini-Storage LLC
Gold Member","12095 Locksley Ln, CA 95602",Auburn,California,95602,15308471400,
Ace Mini Storage,12260 Shale Ridge Road,Auburn,California,95602,5308886464,aceministorage@foothillwireless.net
ALLSTORAGE,450 Grant Avenue Rd,Auburn,New York,13021,3152552338,customerservice@allstorageny.com
StorMore Self Storage,1802 A Street SE,Auburn,Washington,98002,2539398200,
"Bel-Red Storage
Gold Member","1405 130th Ave N.E., WA 98005",Bellevue,Washington,98005,4252233875,
"Factoria Security Self Storage
Gold Member","13120 SE 30th St, WA 98005",Bellevue,Washington,98005,14253410342,
Safegard Self Storage,1015 164th Avenue NE,Bellevue,Washington,98008-3517,4257462151,safegardselfstorage@comcast.net
Stor-House,1714 Bellevue Way N.E.,Bellevue,Washington,98004,4254532242,
"Discovery Park Heated Storage
Gold Member","1470 King St, WA 98229",Bellingham,Washington,98229,13605232592,
North Creek Self Storage,1627 208th St. S.E.,Bothell,Washington,98102-7798,4254897888,storing@ncreekstorage.com
Farrell Group LLC dba AAAA Mini Storage,17786 Des Moines Memorial Drive,Burien,Washington,98148,,sean@farrellgroup.net
"Mini Storage Mt. Vernon and Burlington
Gold Member","1465 S Burlington Blvd, WA 98233",Burlington,Washington,98233,13603398563,
Burlington Self Storage,35 Ray Ave.,Burlington,Massachusetts,01803,7812700111,infoburl@bssproperties.com
Mini Warehouse of Alamance,1550 Industry Drive,Burlington,North Carolina,27215,3362280769,info@rlpatterson.com
Ray Mini Storage,1400 N Church St,Burlington,North Carolina,27217,3362273677,rss@rayselfstorage.com
Storage Unlimited Burlington,17 Terry Ave,Burlington,Massachusetts,01803,7812731800,storageunlimited@platinumstorage.com
"Everett Secure Self Storage
Gold Member","11330 4th Ave W, WA 98204",Everett,Washington,98204,4253741182,
Anthem Self Storage,1610 SE Everett Mall Way,Everett,Washington,98208,4253979999,anthemselfstorageeverett@gmail.com
Anthem Self Storage,1610 SE Everett Mall Way,Everett,Washington,98208,4253979999,anthemselfstorageeverett@gmail.com
Sound Storage Management,2701 Wetmore Avenue,Everett,Washington,98201-3526,4252582323,info@soundstoragemanagement.com
Irish Loft Self Storage LLC,PO Box 23490,Federal Way,Washington,98093-3490,2539274000,irishloft@msn.com
Security Self Storage,3711 Hunt St. N.W.,Gig Harbor,Washington,98335-8228,2538515830,
"Issaquah Highlands Self Storage
Gold Member","910 NE High St, WA 98029",Issaquah,Washington,98029,14253360343,
"Valley Self Storage
Gold Member","21218 84th Ave S, WA 98032",Kent,Washington,98032,12533973758,
"Kirkland Way Storage
Gold Member","11200 Kirkland Way Ste 100, WA 98033",Kirkland,Washington,98033,14256299817,
"Safe Store Self Storage
Gold Member","3723 112th Street SW, WA 98499",Lakewood,Washington,98499,2532036320,
Added Space Inc,767 River Avenue,Lakewood,New Jersey,08701,7323702770,jjfrain@hotmail.com
Lakewood Store and Lock,1519 Prospect Street,Lakewood,New Jersey,08701,7323639125,manager_lakewoodstorage@msn.com
"Chateau Storage and Business Park
Gold Member","28610 Maple Valley Black Diamond Rd SE, WA 98038",Maple Valley,Washington,98038,4253108259,
"Corners Self Storage
Gold Member","24215 SE 271st Pl, WA 98038",Maple Valley,Washington,98038,14253741302,
Executive Storage Systems,708 North 29th Street,Monroe,Louisiana,71201,3188127807,info@goebp.com
Hideaway Self Storage,504 Finks Hideaway Road Suite 1,Monroe,Louisiana,71203-2471,3183438055,info@hideawayselfstorage.com
North Monroe Self Storage,3451 Bon Aire Drive,Monroe,Louisiana,70458-8676,3183437445,
RBL Storage Inc,7539 Highway 165 North,Monroe,Louisiana,71203-8713,3183875844,rblstorage@bayou.com
Sherlock Storage,15366 S. Dixie Hwy.,Monroe,Michigan,48161,7342424120,info@sherlockstorageofmonroe.com
"Quality Self Storage
Gold Member","325 Washington Street NE, WA 98501",Olympia,Washington,98501,3603395151,
"Arm Guard Self Storage
Gold Member","6805 112th St E, WA 98373",Puyallup,Washington,98373,12532487821,
"Emerald Heated Self Storage
Gold Member","16707 110th Ave E, WA 98374",Puyallup,Washington,98374,2532511787,
"Redmond Ridge Self Storage
Gold Member","23060 NE 102 St, WA 98053",Redmond,Washington,98053,4257487948,
"Renton Highlands Self Storage
Gold Member","3408 NE 4th St, WA 98056",Renton,Washington,98056,14256544829,
"Storage One at Benson
Gold Member","10650 SE 174th St, WA 98055",Renton,Washington,98055,14252435284,
"Storage One on 4th
Gold Member","4815 NE 4th St, WA 98059",Renton,Washington,98059,4252721196,
"Storage One on 4th Phase2
Gold Member","4815 NE 4th St, WA 98059",Renton,Washington,98059,14252439949,
"Storage One on Sunset
Gold Member","1105 Sunset Blvd NE, WA 98056",Renton,Washington,98056,4253181580,
Branchville Self Storage,70 W Branchville Rd,Ridgefield,Connecticut,06877-6222,2035440100,branchville8237@sbcglobal.net
"Plateau Heated Storage
Gold Member","621 228th Ave NE, WA 98074",Sammamish,Washington,98074,14253361488,
"Fremont Heated Storage
Gold Member","319 Nickerson St, WA 98109",Seattle,Washington,98109,12067017771,
"Magnolia Bridge Self Storage
Gold Member","1900 15th Ave W, WA 98119",Seattle,Washington,98119,12065352689,
"Metro Heated Storage
Gold Member","8908 Lake City Way NE, WA 98115",Seattle,Washington,98115,2069732451,
"Roosevelt Self Storage
Gold Member","6910 Roosevelt Way NE, WA 98115",Seattle,Washington,98115,12068767097,
"Seattle Self Storage
Gold Member","1100 Poplar Pl S, WA 98144",Seattle,Washington,98144,12068767037,
"Skyway Self Storage
Gold Member","11840 Renton Ave S, WA 98178",Seattle,Washington,98178,12068767104,
"Urban Storage @ Rainier Brewery
Gold Member","918 S Horton St Ste 1513, WA 98134",Seattle,Washington,98134,12069051825,
"Urban Storage-Capitol Hill Self Storage
Gold Member","125 12th Ave, WA 98122",Seattle,Washington,98122,12067344470,
Urban Self Storage Inc,1111 E. Madison St.,Seattle,Washington,98122,2069732459,pat.reilly@urbanstorage.com
"Lake Spanaway Self Storage
Gold Member","14715 Pacific Ave S, WA 98444",Tacoma,Washington,98444,12537770965,
"Snapbox Self Storage
Gold Member","2211 112th St S, WA 98444",Tacoma,Washington,98444,12535255373,
Midland RV & Boat Storage,9712 10th Ave. E,Tacoma,Washington,98445,2064293255,midlandboatrvstorage@gmail.com
Orchard Street Self Storage,4001 S Orchard St,Tacoma,Washington,98466-6651,2535657436,cdugski@cmc.net
Secure It Self Storage,2121 S Orchard St,Tacoma,Washington,98466,2533010764,kriskain@gmail.com
"Mill Plain Heated Storage
Gold Member","705 SE Park Crest Ave Ste A 100, WA 98683",Vancouver,Washington,98683,13606692431,
"Orchards Center Self Storage
Gold Member","10621 NE Coxley Dr #214, WA 98662",Vancouver,Washington,98662,13603346891,
Fisher's Landing Storage,2410 SE 164th Ave.,Vancouver,Washington,98683,3602541442,
H and H Self Storage,2123 44th Ave,Vancouver,Washington,98632-5007,3605770303,tglucoft@comcast.net
Public Storage,"2650 Rupert Street, Vancouver",Vancouver,British Columbia,V5M4X2,6044126070,
Public Storage,8500 Kinross Street Vancouver,Vancouver,British Columbia,V5S4V9,6044126075,
Public Storage,"1775 Main Street, North Vancouver",Vancouver,British Columbia,V7J3J1,6049297166,
Public Storage,"1698 W. 3rd. Avenue, Vancouver",Vancouver,British Columbia,V6J1K3,6047369845,
Public Storage,"111 Commercial Drive, Vancouver",Vancouver,British Columbia,V5L3V4,6042554455,
Public Storage,663 Terminal Avenue Vancouver,Vancouver,British Columbia,V6A2M2,6046884307,
Stor Rite Self Storage,5515 NE 121st Ave,Vancouver,Washington,98625,,c-madams@scattercreek.com
"Yakima Secure
Gold Member","3010 Castlevale Rd, WA 98902",Yakima,Washington,98902,15096203073,
"Yakima Valley Storage
Gold Member","2211 Longfibre Rd, WA 98903",Yakima,Washington,98903,15092604070,
Blinsky PM Self Storage,210 Keys Rd,Yakima,Washington,98901,5096549248,donean@blinsky.com
Val-U-Lock Storage,2018 Fruitvale Blvd.,Yakima,Washington,98902,5092481989,valulockstorage@charter.net
"Wall Street Storage
Gold Member","124 S Wall St, WA 99201",Spokane,Washington,99201,15095199255,
ABC Mini Storage LLC,7726 West Highway 2,Spokane,Washington,99224,5096242248,jdaley@gntech.com
Secure It Self Storage,12015 N Division St,Spokane,Washington,99218,5094652788,
Self Storage,322 East North Foothills Drive,Spokane,Washington,99207-2128,5094567368,apartments@spokane-rentals.com
South Hill Mini Storage,3115 E 57th Ave,Spokane,Washington,99223-7068,5094483540,
"Barker Storage
Gold Member","4303 N Barker Rd, WA 99027",Spokane Valley,Washington,99027,18884561122,
Vista Park Mini Storage,7600 W. Deschutes,Kennewick,Washington,99336,5097835858,vistamini@aol.com
"Clock Tower Self Storage - Marysville
Gold Member","8119 State Ave, WA 98270",Marysville,Washington,98270,15098226251,
Arboga Self Storage,3024 Plumas Arboga Rd.,Marysville,California,95901,5307411992,brent@hastey.net
Marysville,1597 HAMMONTON SMARTVILLE ROAD,Marysville,California,95901,5307427511,americanselfstorage@comcast.net
"Express Self Storage
Gold Member","6217 W Court St, WA 99301",Pasco,Washington,99301,15095874572,
"Keylock Storage Pasco
Gold Member","3030 W Irving St, WA 99301",Pasco,Washington,99301,15092609192,
B and R Mini Storage,615 7th Ave,Longview,Washington,98632-1691,3605771110,
Longview Self Storage LLC,4420 Ocean Beach Hwy,Longview,Washington,98632-5039,3605774420,4bohmes@adelphia.net
SOS Save on Storage,2329 Market Street,Mount Vernon,Washington,98273-5409,3604287867,
"Clock Tower Self Storage - Lake Stevens
Gold Member","9100 WA-92 #8014, WA 98258",Lake Stevens,Washington,98258,14253668674,
"Kenmore Self Storage
Gold Member","18716 68th Ave NE, WA 98028",Kenmore,Washington,98028,14254411476,
Fairgrounds Mini Storage LLC,2314 NW 32nd Circle,Camas,Washington,98607,3605216766,
"Self Storage at Tehaleh
Gold Member","15125 198th Ave E, WA 98391",Bonney Lake,Washington,98391,13604996863,
Freedom Self Storage,2992 E. Johns Prairie Rd,Shelton,Washington,98548,3604270851,info@freedomselfstoragewa.com
Sentry Mini Storage,190 West Sentry Drive,Shelton,Washington,98584,3604261059,mike@sentrypark.com
"Keylock Storage Market
Gold Member","14106 N Market St, WA 99021",Mead,Washington,99021,15096202199,
"Keylock Storage Mead
Gold Member","14106 N Market St, WA 99021",Mead,Washington,99021,15096202199,
Eagle Self Storage,14106 N. Market,Mead,Washington,99021,5094665533,info@eagleministorage.com
Stanwood Self Storage LLC,8505 Cedarhome Drive Northwest,Stanwood,Washington,98292-9539,3606293075,wadestar@whidbey.net
Broadway Storage,4933 NE 46th Ave.,Des Moines,Iowa,50317,5152627368,
"Lynden Heated Self Storage
Gold Member","8329 WA-539, WA 98264",Lynden,Washington,98264,13609191092,
All About Storage,132 South Hooker Road,Sequim,Washington,98382,3606816789,lynne@sequimstorage.com
Country Side Storage,St Rt 43 & St Rt 225,Battle Ground,Indiana,47920,7655674894,kruegers@dcwi.com
"Cascade Heated Self Storage
Gold Member",1080 SE N Bend Way,North Bend,Washington,98045,14253210902,
Ole Cedar Mill Mini Storage,44800 SE North Bend Way,North Bend,Washington,98045-9564,4258880001,
All Around Self Storage,1770 75th St NE,Rochester,Minnesota,55906,5072528296,khart@schoeppnerinc.com
Cramalot Self Storage,10501 Hwy 12 S.W.,Rochester,Washington,98579,3602735084,dixon@cramalot.biz
Eastside Storage,6584 Hwy 14 East,Rochester,Minnesota,55904,5072884793,jjswan@earthlink.net
Flintstones Mini Storage,1995 Kresky Ave. NE,Chehalis,Washington,98532-2306,3607486583,flintstone@localaccess.com
"Ferndale Self Storage
Gold Member","5210 La Bounty Dr, WA 98248",Ferndale,Washington,98248,13609191031,
Ferndale Mini Storage,5480 Nielsen Ave,Ferndale,Washington,98248-7820,3603843022,ferndale_mini_storage@hotmail.com
Grand Central Self Storage,3101 Bermuda,Ferndale,Michigan,48220,2485425600,info@grandcentral.biz
3-D Storage LLC,2702 Pulaski Hwy,Edgewood,Maryland,21040-1308,4106769477,harfordrental@aol.com
Stack and Store Inc,2100 Emmorton Park Road,Edgewood,Maryland,21040,4106792559,lfriedman@fandf-Iaw.com
"Pacific Storage
Gold Member","15411 Silverdale Way NW, WA 98370",Poulsbo,Washington,98370,13603018989,
Reliable Storage,1080 Forest Rock Ln. NE,Poulsbo,Washington,98370-6524,3607797755,
Elma Mini Storage LLC,Po. Box 1547,Elma,Washington,98541,3604822432,info@elmaministorage.com
Western Self Storage LLC,1402 East Valley Highway East,Sumner,Washington,98390-9575,2538637102,Iynn@petersenbrothers.com
"Enumclaw Plateau Heated Storage
Gold Member","2035 Commerce St, WA 98022",Enumclaw,Washington,98022,13603394168,
Enumclaw Self Storage,810 Blake Street,Enumclaw,Washington,98022-9382,3608254143,info@enumclawselfstorage.com
"ABC Self Storage
Gold Member","511 Pine Ave, WA 98290",Snohomish,Washington,98290,13607460902,
"Storage Star Woodland
Gold Member","35 Matmor Rd, CA 95776",Woodland,California,95776,15304059435,
"Woodland
Gold Member","1319 E Beamer St, CA 95776",Woodland,California,95776,19513664662,
"Woodland
Gold Member","1319 E Beamer St, CA 95776",Woodland,California,95776,19513664662,
Beamer Street Storage,1572 E. Beamer Street,Woodland,California,95776-6203,5306697399,yololnc@7thhour.com
Sierra Mini Storage,39 5th St,Woodland,California,95695-3326,5306623901,
"Dupont Heated Self Storage
Gold Member","3400 International Place, WA 98327",DuPont,Washington,98327,2532036375,
Morgantown Self Storage Earnshaw's Entp Inc,PO Box 439,Morgantown,Pennsylvania,19543-0439,6102869494,
Budget Self Storage,225 Boston Ave.,Bridgeport,Connecticut,06610,2033676401,sarango27@hotmail.com
Main Street Self Storage LLC,1739 Main Street,Bridgeport,Connecticut,06604,2033342112,info@mainstselfstorage.com
U-Store Inc,RR 98,Clarksburg,West Virginia,26301,3046228292,
Rockwell Mini Storage,PO Box 85,Ranson,West Virginia,25438-0085,3047247867,rockwellstorage@aol.com
Sky Mountain Storage,4 South 2600 West #4A,Hurricane,Utah,84737,4356350366,ballardrealty@infowest.com
Safeharbor Self Storage,W63 N647 Washington Ave.,Cedarburg,Wisconsin,53012-1945,2623750400,
East Side Stor Mor,4150 N. Lydell Avenue,Milwaukee,Wisconsin,53212-1018,4149621778,
Green Bay Avenue Self Slorage,4565 N. Green Bay Ave.,Milwaukee,Wisconsin,53209,4144550258,bw@continentaltextile.com
Silver Spring Self Storage Inc,12000 W Silver Spring Drive,Milwaukee,Wisconsin,53225-2905,4145272000,
Ryan Road Self Storage LLC,840 W Ryan Rd.,Oak Creek,Pennsylvania,53154,4147644040,manager@ryanroadselfstorage.com
Acorn Mini Warehouse Storage LLC,2420 North 15th Street # 22,Sheboygan,Wisconsin,53083,9204585574,gfriedel@excel.net
Transpo Mini-Storage,3515 Superior Avenue,Sheboygan,Wisconsin,53081-1865,9204571155,transpomini@hotmail.corn
Badger Self Storage,1630 Wisconsin Street,Sturtevant,Wisconsin,53140,2628869395,badgerchick@wi.rr.com
All Safe Mini Stor-It,1515 Manhattan Drive,Waukesha,Wisconsin,53186-3920,2625440950,
Barth Storage,4217 Green Bay Road,Kenosha,Wisconsin,53144,2626589090,sales@barthstorage.com
Suregard Storage LLC,2620 Packerland,Green Bay,Wisconsin,54313,9204972426,
Wolf River Partners LLC dba Apple Storage,P.O. Box 11623,Green Bay,Wisconsin,54307-1623,9207341478,applestorage@wolfriverpartners.com
Barr Warehousing LLC,1375 Planeview Dr,Oshkosh,Wisconsin,54904,9202311711,info@barrstorage.com
By-Pass Mini Storage,3477 Townhall Rd,West Bend,Wisconsin,53090,2623340856,bypass@charter.net
Factory Square LLC,629 A Factory Square,Watertown,New York,13601,3157882488,jerry@jgardner.com
U Store of Watertown,22740 Murrock Circle,Watertown,New York,13601,3157825259,info@ustorewatertown.com
Mega Storage,2451 48th St S,Wisconsin Rapids,Wisconsin,54494-7714,7154236342,ramsden1@wctc.net
"A-1 Self Storage
Gold Member","615 SE Main St, OR 97214",Portland,Oregon,97214,19713734368,
"Gecko RV and Boat Storage
Gold Member","350 NE Pomona, St,OR 97470",Roseburg,Oregon,97470,15416778400,
"Keizer Storage Center
Gold Member","7995 Wheatland Rd N, OR 97303",Keizer,Oregon,97303,19713734367,
"Keylock Storage Pendleton
Gold Member","1220 Airport Rd, OR 97801",Pendleton,Oregon,97801,15416251991,
"Mt Hood Self Storage
Gold Member","1055 Mt Hood Ave, OR 97071",Woodburn,Oregon,97071,15034763537,
"North Albany Self Storage
Gold Member","650 NW Hickory St, OR 97321",Albany,Oregon,97321,15417095470,
"Philomath Self Storage
Gold Member","421 Landmark Dr, OR 97370",Philomath,Oregon,97370,15413736833,
"South Waterfront Heated Storage
Gold Member","680 SW Bancroft St, OR 97239",Portland,Oregon,97239,15034763534,
"Walnut Blvd Self Storage
Gold Member","850 NE Walnut Blvd, OR 97330",Corvallis,Oregon,97330,15416222752,
Airport-U-Stor,Po. Box 1,Langlois,Oregon,97450,5413482500,webmaster@ocnsignal.com
All Secure Mini Storage,1172 Old Salem Rd NE # 1,Albany,Oregon,97321-4500,5419240413,hanst@htestate.com
All Star Self Storage,Po. Box 2660,Tualatin,Oregon,97062,5036129230,allstarstorage99w@yahoo.com
All-Storage,Po. Box 222,Toledo,Oregon,97391,5413360500,april@allstoragetoledo.com
Barbur Blvd Self-Storage LLC,11318 SW Barbur Blvd.,Portland,Oregon,97219,5032456464,info@barburstorage.com
Bend Self Stor,63273 Nels Anderson Road,Bend,Oregon,97701-5741,5413891664,
A Safe Mini Storage,3619 Gentian Blvd.,Columbus,Georgia,31907-5677,7065650077,jmoore@averettcompany.com
Rent-A-Space LLC,406 Wilkins Wise Rd.,Columbus,Mississippi,39705,6623275656,info@columbusrentaspace.com
"Mini Storage Mt. Vernon and Burlington
Gold Member","1465 S Burlington Blvd, WA 98233",Burlington,Washington,98233,13603398563,
Burlington Self Storage,35 Ray Ave.,Burlington,Massachusetts,01803,7812700111,infoburl@bssproperties.com
Mini Warehouse of Alamance,1550 Industry Drive,Burlington,North Carolina,27215,3362280769,info@rlpatterson.com
Ray Mini Storage,1400 N Church St,Burlington,North Carolina,27217,3362273677,rss@rayselfstorage.com
Storage Unlimited Burlington,17 Terry Ave,Burlington,Massachusetts,01803,7812731800,storageunlimited@platinumstorage.com
Scenic Self Storage,900 Silvernail Rd. Suite A,Pewaukee,Wisconsin,53072,2625428833,Scenicselfstorage@gmail.com
A-1 Affordable Storage,1431 Airway,Waterford,Michigan,48327-1824,2488868800,chuckg@realfi.com
Storage City LLC,806 Windsor Street,Hartford,Connecticut,06120,8605481513,cmcjay@aol.com
Southport Mini-Storage,601 Iris Ave,Jefferson,Louisiana,70121-2529,5048358961,jadefraites@earthlink.net
Lincoln Storage,3226 State Route 45,Salem,Ohio,44460,3303328888,george@parkerburns.com
Public Storage,2715 S. Commerce Pky.,Weston,Florida,33331,,
Public Storage,2707 Executive Park Lane,Weston,Florida,33331,,
"Storage Star Cheyenne
Gold Member","4405 Van Buren Ave, WY 82001",Cheyenne,Wyoming,82001,13074481413,
Security Storage LLC,2130 Missile Dr,Cheyenne,Wyoming,82001-2655,3076345008,RPhill7087@aol.com
